#aV2016  1 15  0  0  0.00000000     288 DD+AD WGS84 FIT  NGA
## 1879 432000.00000000   300.00000000 57402 0.0000000000000
+   31     1  2  3  5  6  7  8  9 10 11 12 13 14 15 16 17 18
+         19 20 21 22 23 24 25 26 27 28 29 30 31 32  0  0  0
+          0  0  0  0  0  0  0  0  0  0  0  0  0  0  0  0  0
+          0  0  0  0  0  0  0  0  0  0  0  0  0  0  0  0  0
+          0  0  0  0  0  0  0  0  0  0  0  0  0  0  0  0  0
++         2  2  2  2  2  2  2  2  2  2  2  2  2  2  2  2  2
++         2  2  2  2  2  2  2  2  2  2  2  2  2  2  0  0  0
++         0  0  0  0  0  0  0  0  0  0  0  0  0  0  0  0  0
++         0  0  0  0  0  0  0  0  0  0  0  0  0  0  0  0  0
++         0  0  0  0  0  0  0  0  0  0  0  0  0  0  0  0  0
%c cc cc ccc ccc cccc cccc cccc cccc ccccc ccccc ccccc ccccc
%c cc cc ccc ccc cccc cccc cccc cccc ccccc ccccc ccccc ccccc
%f  0.0000000  0.000000000  0.00000000000  0.000000000000000
%f  0.0000000  0.000000000  0.00000000000  0.000000000000000
%i    0    0    0    0      0      0      0      0         0
%i    0    0    0    0      0      0      0      0         0
/*      NGA, ST. LOUIS,MO.                                  
/*   EPHEMERIS COMPUTED FROM 2 DAYS OF DATA                 
/*   EPOCHA v2.4 SMOOTHER                                   
/*   G1762 IERS2010 SATAF SATAPC                            
*  2016  1 15  3 35  0.00000000
P  1  11998.162915 -21742.959945  -9191.207191      9.166858                    
V  1   9936.587807  -6583.302004  28982.405348      0.009467                    
P  2 -20790.318103  11285.824665 -11228.340336    599.163254                    
V  2   7465.550076 -13504.266990 -26860.957314      0.003106                    
P  3   6134.857276 -14141.396509 -21634.361134    -11.672316                    
V  3  26651.673565   6649.232265   3196.335512     -0.050260                    
P  5 -23365.040672   3697.840491  12200.492057   -155.305958                    
V  5 -14596.997010  -5978.748861 -25799.228969      0.035402                    
P  6 -17399.386596  -1769.138713 -19980.766136    129.301563                    
V  6  16602.524027 -19224.407648 -12761.372302      0.062137                    
P  7  -2200.036423 -17331.405634  20017.682343    473.714825                    
V  7  18642.349279 -17043.385698 -13170.008911     -0.014470                    
P  8   8316.973901 -17143.486332  18555.394839    -20.075595                    
V  8   8210.336284  22011.583919  16713.305042     -0.014405                    
P  9  -8082.907506 -25289.365191    519.537465     50.131913                    
V  9   2667.368816  -1525.175560 -31635.874275      0.078602                    
P 10  23004.423292  10906.882898   7663.869967     49.455661                    
V 10 -10060.447824    362.668332  29657.109614     -0.000347                    
P 11   9960.328532 -24585.109647   -392.445345   -627.269206                    
V 11   4470.854723   2005.399289  30277.964919     -0.020465                    
P 12  -9896.399667  11908.447642 -21651.449717    361.017649                    
V 12 -25959.712276  -8125.735922   7646.300122      0.027581                    
P 13 -13205.042056   8572.491007  21268.687530   -178.518397                    
V 13  -5332.901291 -26755.558302   7334.950459     -0.026111                    
P 14  14089.389810  16927.314777 -14703.571583      9.145193                    
V 14   2103.794954  19025.616523  23376.039371     -0.023338                    
P 15  -5717.701518  19926.098804  16292.371811   -292.301175                    
V 15  -9635.241557 -18998.877244  20053.021006     -0.018848                    
P 16  23697.170740  -1011.046762  12257.711564    -48.276504                    
V 16  14413.991882   5871.476497 -26826.274550      0.032818                    
P 17 -14108.082102 -17536.440337 -13937.209819   -198.784495                    
V 17  -2651.191737 -18037.445869  24608.457229     -0.007285                    
P 18  13864.954628  15867.103318  16841.786980    473.167216                    
V 18 -20442.226239  -2076.181478  19110.517830      0.038908                    
P 19 -13737.398661 -17128.475552 -14885.893750   -524.430132                    
V 19  -1636.073040 -18670.328960  23760.740029     -0.001891                    
P 20  -9160.046868  14108.196205  20406.016432    385.779154                    
V 20 -25930.895429  -5044.790268  -8028.498474      0.026978                    
P 21   6957.615085  15491.073078  21098.328594   -505.266200                    
V 21 -17667.240910  18137.400882  -8064.901189     -0.020529                    
P 22  26265.997281   4117.571316  -1793.948068    411.148901                    
V 22   1696.602344   4298.193433  30662.668437     -0.044902                    
P 23    726.217094 -24085.931755 -10497.605918   -155.003666                    
V 23   7016.722096  12266.478285 -27648.134319     -0.019393                    
P 24 -13755.008826  21747.847010  -6211.020365    -10.778318                    
V 24  -7623.710396   3726.016927  30326.319203     -0.006074                    
P 25   5113.643483  15709.497468 -20938.793907    -99.718275                    
V 25 -25684.200631  -5504.677812 -10274.261678     -0.063950                    
P 26  26112.326021   4348.126746   2388.350962   -211.558029                    
V 26   2315.594181   3396.773731 -31535.603702     -0.166497                    
P 27  13693.689809  -6382.394195  21815.047548     53.511167                    
V 27   8278.122151  26469.121878   2684.020248      0.034368                    
P 28 -21739.149976 -12965.226628   8771.922543    495.428289                  M 
V 28  10203.846715   1586.774401  29753.383064      0.026678                    
P 29   4700.937497  26068.846540  -2197.894681    651.705037                    
V 29  -2886.730493  -2193.820747 -31899.276405      0.011588                    
P 30 -11764.308233 -10002.726274  21609.987135     84.432193                    
V 30  20107.351282 -18714.866552   2205.316994      0.047528                    
P 31  18487.663770    -13.508845 -19086.583469    286.989080                    
V 31 -16563.750751  17851.567139 -15605.740739     -0.016577                    
P 32  17609.998480  -7970.918799 -18055.384608     81.300442                    
V 32  21261.200284   9053.179705  17341.994693      0.127721                    
EOF
